DUPLEX                  
1 66906U 98067XS  26017.15328362  .00029075  00000+0  47045-3 0  9998
2 66906  51.6322 326.5208 0002198  23.5991 336.5100 15.52575732  7112
1998-067XT              
1 66907U 98067XT  26017.28894711  .00081741  00000+0  11197-2 0  9995
2 66907  51.6304 325.1763 0003576  75.1195 285.0193 15.56666073  7140
1998-067XU              
1 66908U 98067XU  26017.54491488  .00069291  00000+0  95264-3 0  9993
2 66908  51.6305 323.8847 0003502  70.7927 289.3443 15.56637912  7182
SILVERSAT               
1 66909U 98067XV  26017.21424901  .00095884  00000+0  12757-2 0  9996
2 66909  51.6304 325.4267 0003762  80.6753 279.4664 15.57375299  7139
1998-067XW              
1 66910U 98067XW  26017.28056132  .00077594  00000+0  10528-2 0  9994
2 66910  51.6293 325.1176 0002476  56.8464 303.2765 15.56947427  7145
1998-067XX              
1 66911U 98067XX  26017.26346347  .00109150  00000+0  14044-2 0  9994
2 66911  51.6293 325.0039 0002498  79.4041 280.7232 15.58210996  7132
1998-067XY              
1 66912U 98067XY  26017.56701649  .00056957  00000+0  82891-3 0  9990
2 66912  51.6315 324.0326 0003341  55.7360 304.3947 15.55179482  7176
